ONEWEB-0056             
1 45159U 20008AE  25089.80834688 -.00000621  00000+0 -18161-2 0  9992
2 45159  87.8816 124.6581 0002049  97.3609 262.7751 13.10371252250114
ONEWEB-0057             
1 45160U 20008AF  25090.12122947 -.00000626  00000+0 -18297-2 0  9994
2 45160  87.8817 124.6062 0002136  99.0309 261.1060 13.10372148250812
ONEWEB-0058             
1 45161U 20008AG  25090.10810034 -.00000345  00000+0 -10237-2 0  9998
2 45161  87.8809 124.6266 0001998  91.8623 268.2733 13.10369370251149
ONEWEB-0059             
1 45162U 20008AH  25090.10464484 -.00000160  00000+0 -49536-3 0  9993
2 45162  87.8814 124.6206 0001955  92.0750 268.0601 13.10369837251035
ONEWEB-0062             
1 45163U 20008AJ  25089.82500582 -.00000368  00000+0 -10884-2 0  9994
2 45163  87.8820 124.6577 0001643  91.4021 268.7295 13.10455089250122
ONEWEB-0065             
1 45164U 20008AK  25089.80419076 -.00000500  00000+0 -14700-2 0  9999
2 45164  87.8820 124.6808 0002103  99.0609 261.0756 13.10370240249815
ONEWEB-0066             
1 45424U 20020A   25089.55727423 -.00000113  00000+0 -35378-3 0  9997
2 45424  87.8800 109.4994 0002306  87.5865 272.5527 13.11417930244536
ONEWEB-0067             
1 45425U 20020B   25089.74730860  .00000406  00000+0  11106-2 0  9993
2 45425  87.8785 109.3873 0002181  92.5151 267.6227 13.11412962244610
